NORAD_CAT_ID,OBJECT_NAME,OBJECT_TYPE,EPOCH,MEAN_MOTION,ECCENTRICITY,INCLINATION,RA_OF_ASC_NODE,ARG_OF_PERICENTER,MEAN_ANOMALY,BSTAR,MEAN_MOTION_DOT,MEAN_MOTION_DDOT,TLE_LINE0,TLE_LINE1,TLE_LINE2,SEMIMAJOR_AXIS,PERIOD,APOGEE,PERIGEE,DECAYED
55941.0,STARLINK-5914,PAYLOAD,2024-04-29 22:06:50,14.9834449,0.0003235,70.0003,196.0194,268.5718,91.5071,0.00016242,1.846e-05,0.0,0 STARLINK-5914,1 55941U 23037AD  24120.92141273  .00001846  00000-0  16242-3 0  9994,2 55941  70.0003 196.0194 0003235 268.5718  91.5071 14.98344490 62306,6950.148,96.106,574.261,569.765,0.0
55941.0,STARLINK-5914,PAYLOAD,2024-04-30 04:31:22,14.98336725,0.0003527,69.9994,195.3448,271.6419,88.4336,0.00036942,4.318e-05,0.0,0 STARLINK-5914,1 55941U 23037AD  24121.18845062  .00004318  00000-0  36942-3 0  9996,2 55941  69.9994 195.3448 0003527 271.6419  88.4336 14.98336725 62685,6950.172,96.107,574.488,569.586,0.0
55941.0,STARLINK-5914,PAYLOAD,2024-04-30 12:32:04,14.98313473,0.0003168,69.9997,194.5039,271.3437,88.7359,9.2208e-05,1.007e-05,0.0,0 STARLINK-5914,1 55941U 23037AD  24121.52227306  .00001007  00000-0  92208-4 0  9999,2 55941  69.9997 194.5039 0003168 271.3437  88.7359 14.98313473 62732,6950.244,96.108,574.311,569.907,0.0
55941.0,STARLINK-5914,PAYLOAD,2024-04-30 14:08:12,14.98315575,0.0003172,69.9998,194.336,269.9318,90.1477,0.00011515,1.281e-05,0.0,0 STARLINK-5914,1 55941U 23037AD  24121.58903158  .00001281  00000-0  11515-3 0  9996,2 55941  69.9998 194.3360 0003172 269.9318  90.1477 14.98315575 62401,6950.237,96.108,574.307,569.898,0.0
55941.0,STARLINK-5914,PAYLOAD,2024-04-30 22:08:52,14.98318755,0.0003273,69.9995,193.4935,270.8395,89.2389,2.2615e-05,1.77e-06,0.0,0 STARLINK-5914,1 55941U 23037AD  24121.92283384  .00000177  00000-0  22615-4 0  9993,2 55941  69.9995 193.4935 0003273 270.8395  89.2389 14.98318755 62453,6950.228,96.108,574.367,569.818,0.0
55941.0,STARLINK-5914,PAYLOAD,2024-05-01 10:57:57,14.98327517,0.0003071,70.0,192.1479,270.2535,89.8272,-2.4409e-05,-3.84e-06,0.0,0 STARLINK-5914,1 55941U 23037AD  24122.45691144 -.00000384  00000-0 -24409-4 0  9994,2 55941  70.0000 192.1479 0003071 270.2535  89.8272 14.98327517 62877,6950.201,96.107,574.2,569.931,0.0
55941.0,STARLINK-5914,PAYLOAD,2024-05-01 22:10:53,14.9833195,0.0003187,69.9993,190.9678,269.4462,90.6332,-5.5993e-05,-7.61e-06,0.0,0 STARLINK-5914,1 55941U 23037AD  24122.92422881 -.00000761  00000-0 -55993-4 0  9997,2 55941  69.9993 190.9678 0003187 269.4462  90.6332 14.98331950 62603,6950.187,96.107,574.267,569.837,0.0
55941.0,STARLINK-5914,PAYLOAD,2024-05-02 04:35:25,14.9833981,0.0003331,69.9995,190.2954,269.1341,90.9436,-0.00017167,-2.141e-05,0.0,0 STARLINK-5914,1 55941U 23037AD  24123.19126510 -.00002141  00000-0 -17167-3 0  9991,2 55941  69.9995 190.2954 0003331 269.1341  90.9436 14.98339810 62981,6950.163,96.106,574.343,569.712,0.0
55941.0,STARLINK-5914,PAYLOAD,2024-05-02 14:12:13,14.98347461,0.0003054,69.9995,189.2864,269.2402,90.8407,-0.00021767,-2.69e-05,0.0,0 STARLINK-5914,1 55941U 23037AD  24123.59181936 -.00002690  00000-0 -21767-3 0  9998,2 55941  69.9995 189.2864 0003054 269.2402  90.8407 14.98347461 62708,6950.139,96.106,574.126,569.881,0.0
55941.0,STARLINK-5914,PAYLOAD,2024-05-03 04:37:26,14.98331511,0.0003101,69.9993,187.7708,270.2086,89.8717,9.8451e-05,1.082e-05,0.0,0 STARLINK-5914,1 55941U 23037AD  24124.19266258  .00001082  00000-0  98451-4 0  9993,2 55941  69.9993 187.7708 0003101 270.2086  89.8717 14.98331511 63138,6950.188,96.107,574.208,569.898,0.0
55941.0,STARLINK-5914,PAYLOAD,2024-05-03 14:14:13,14.98338676,0.0003117,69.9994,186.7609,270.2439,89.8363,0.0001098,1.218e-05,0.0,0 STARLINK-5914,1 55941U 23037AD  24124.59321653  .00001218  00000-0  10980-3 0  9999,2 55941  69.9994 186.7609 0003117 270.2439  89.8363 14.98338676 62851,6950.166,96.106,574.197,569.865,0.0
55941.0,STARLINK-5914,PAYLOAD,2024-05-04 04:39:27,14.9832232,0.0002736,70.0022,185.2472,269.588,90.4965,-7.0025e-05,-9.28e-06,0.0,0 STARLINK-5914,1 55941U 23037AD  24125.19407348 -.00000928  00000-0 -70025-4 0  9998,2 55941  70.0022 185.2472 0002736 269.5880  90.4965 14.98322320 63288,6950.217,96.107,573.983,570.18,0.0
55941.0,STARLINK-5914,PAYLOAD,2024-05-05 04:41:29,14.98324707,0.0003061,69.9989,182.7214,270.645,89.4358,-0.00012144,-1.542e-05,0.0,0 STARLINK-5914,1 55941U 23037AD  24126.19547904 -.00001542  00000-0 -12144-3 0  9992,2 55941  69.9989 182.7214 0003061 270.6450  89.4358 14.98324707 63433,6950.209,96.107,574.202,569.947,0.0
55941.0,STARLINK-5914,PAYLOAD,2024-05-05 14:18:17,14.98328081,0.0002835,69.9997,181.7128,266.6115,93.472,-8.1278e-05,-1.063e-05,0.0,0 STARLINK-5914,1 55941U 23037AD  24126.59603713 -.00001063  00000-0 -81278-4 0  9990,2 55941  69.9997 181.7128 0002835 266.6115  93.4720 14.98328081 63152,6950.199,96.107,574.034,570.093,0.0
55941.0,STARLINK-5914,PAYLOAD,2024-05-05 20:42:49,14.9833212,0.0003175,69.9988,181.038,271.0871,88.9925,-4.6574e-05,-6.49e-06,0.0,0 STARLINK-5914,1 55941U 23037AD  24126.86307365 -.00000649  00000-0 -46574-4 0  9993,2 55941  69.9988 181.0380 0003175 271.0871  88.9925 14.98332120 63539,6950.186,96.107,574.258,569.845,0.0
55941.0,STARLINK-5914,PAYLOAD,2024-05-06 12:44:09,14.98330788,0.000306,69.9988,179.355,270.9858,89.095,0.00022807,2.629e-05,0.0,0 STARLINK-5914,1 55941U 23037AD  24127.53066948  .00002629  00000-0  22807-3 0  9997,2 55941  69.9988 179.3550 0003060 270.9858  89.0950 14.98330788 63295,6950.19,96.107,574.182,569.929,0.0
55941.0,STARLINK-5914,PAYLOAD,2024-05-06 20:44:50,14.98333214,0.0003037,69.9989,178.5135,270.2159,89.8652,0.00020762,2.385e-05,0.0,0 STARLINK-5914,1 55941U 23037AD  24127.86446796  .00002385  00000-0  20762-3 0  9993,2 55941  69.9989 178.5135 0003037 270.2159  89.8652 14.98333214 63684,6950.183,96.107,574.159,569.937,0.0
55941.0,STARLINK-5914,PAYLOAD,2024-05-07 12:46:09,14.9834218,0.0003085,69.9988,176.8301,269.7372,90.3433,0.00016515,1.879e-05,0.0,0 STARLINK-5914,1 55941U 23037AD  24128.53205983  .00001879  00000-0  16515-3 0  9997,2 55941  69.9988 176.8301 0003085 269.7372  90.3433 14.98342180 63442,6950.155,96.106,574.164,569.876,0.0
55941.0,STARLINK-5914,PAYLOAD,2024-05-08 04:47:31,14.98336147,0.0002991,69.999,175.1474,270.0375,90.0441,-3.2183e-05,-4.77e-06,0.0,0 STARLINK-5914,1 55941U 23037AD  24129.19966530 -.00000477  00000-0 -32183-4 0  9997,2 55941  69.9990 175.1474 0002991 270.0375  90.0441 14.98336147 63881,6950.174,96.107,574.118,569.96,0.0
55941.0,STARLINK-5914,PAYLOAD,2024-05-08 12:48:11,14.98334659,0.0003042,69.999,174.3057,270.1496,89.9315,-7.7323e-05,-1.016e-05,0.0,0 STARLINK-5914,1 55941U 23037AD  24129.53346597 -.00001016  00000-0 -77323-4 0  9995,2 55941  69.9990 174.3057 0003042 270.1496  89.9315 14.98334659 63593,6950.178,96.107,574.158,569.929,0.0
55941.0,STARLINK-5914,PAYLOAD,2024-05-08 20:48:51,14.98334096,0.000308,69.9989,173.4633,269.9384,90.1422,-9.5638e-05,-1.234e-05,0.0,0 STARLINK-5914,1 55941U 23037AD  24129.86726506 -.00001234  00000-0 -95638-4 0  9994,2 55941  69.9989 173.4633 0003080 269.9384  90.1422 14.98334096 63649,6950.18,96.107,574.186,569.905,0.0
55941.0,STARLINK-5914,PAYLOAD,2024-05-09 04:49:31,14.9833813,0.0003101,69.9987,172.6213,269.9435,90.1369,-7.8883e-05,-1.034e-05,0.0,0 STARLINK-5914,1 55941U 23037AD  24130.20106052 -.00001034  00000-0 -78883-4 0  9993,2 55941  69.9987 172.6213 0003101 269.9435  90.1369 14.98338130 64030,6950.168,96.106,574.188,569.878,0.0
55941.0,STARLINK-5914,PAYLOAD,2024-05-09 12:50:11,14.98339563,0.0003181,69.9988,171.7805,271.7232,88.3562,-8.4882e-05,-1.106e-05,0.0,0 STARLINK-5914,1 55941U 23037AD  24130.53485821 -.00001106  00000-0 -84882-4 0  9999,2 55941  69.9988 171.7805 0003181 271.7232  88.3562 14.98339563 63744,6950.163,96.106,574.239,569.817,0.0
55941.0,STARLINK-5914,PAYLOAD,2024-05-10 04:51:32,14.98329529,0.0003153,69.999,170.0972,272.7293,87.3505,3.4195e-05,3.15e-06,0.0,0 STARLINK-5914,1 55941U 23037AD  24131.20245999  .00000315  00000-0  34195-4 0  9995,2 55941  69.9990 170.0972 0003153 272.7293  87.3505 14.98329529 64187,6950.194,96.107,574.251,569.868,0.0
55941.0,STARLINK-5914,PAYLOAD,2024-05-10 12:52:12,14.98332657,0.0003136,69.999,169.2555,272.711,87.369,6.6761e-05,7.04e-06,0.0,0 STARLINK-5914,1 55941U 23037AD  24131.53625703  .00000704  00000-0  66761-4 0  9992,2 55941  69.9990 169.2555 0003136 272.7110  87.3690 14.98332657 63891,6950.185,96.107,574.229,569.87,0.0
55941.0,STARLINK-5914,PAYLOAD,2024-05-10 19:16:45,14.98329482,0.0003097,69.9991,168.5822,273.182,86.8984,1.4109e-05,7.5e-07,0.0,0 STARLINK-5914,1 55941U 23037AD  24131.80330034  .00000075  00000-0  14109-4 0  9992,2 55941  69.9991 168.5822 0003097 273.1820  86.8984 14.98329482 63937,6950.194,96.107,574.212,569.907,0.0
55941.0,STARLINK-5914,PAYLOAD,2024-05-11 04:53:33,14.98335238,0.000312,69.999,167.5722,272.8204,87.2598,7.1936e-05,7.66e-06,0.0,0 STARLINK-5914,1 55941U 23037AD  24132.20385537  .00000766  00000-0  71936-4 0  9993,2 55941  69.9990 167.5722 0003120 272.8204  87.2598 14.98335238 64330,6950.177,96.107,574.21,569.873,0.0
55941.0,STARLINK-5914,PAYLOAD,2024-05-11 12:54:11,14.98352896,0.0002735,69.9995,166.7313,267.2875,92.7971,0.00026594,3.083e-05,0.0,0 STARLINK-5914,1 55941U 23037AD  24132.53763663  .00003083  00000-0  26594-3 0  9993,2 55941  69.9995 166.7313 0002735 267.2875  92.7971 14.98352896 64385,6950.122,96.106,573.888,570.086,0.0
55941.0,STARLINK-5914,PAYLOAD,2024-05-11 19:18:46,14.98328655,0.0002183,69.9991,166.0582,283.4736,76.618,-2.1773e-05,-3.53e-06,0.0,0 STARLINK-5914,1 55941U 23037AD  24132.80470025 -.00000353  00000-0 -21773-4 0  9994,2 55941  69.9991 166.0582 0002183 283.4736  76.6180 14.98328655 64429,6950.197,96.107,573.579,570.545,0.0
55941.0,STARLINK-5914,PAYLOAD,2024-05-12 04:55:36,14.98306948,0.0003226,69.9989,165.047,276.7246,83.3545,-0.00027482,-3.369e-05,0.0,0 STARLINK-5914,1 55941U 23037AD  24133.20528007 -.00003369  00000-0 -27482-3 0  9995,2 55941  69.9989 165.0470 0003226 276.7246  83.3545 14.98306948 64488,6950.264,96.108,574.371,569.887,0.0
